{
"type": "FeatureCollection",
"name": "health_facilities",
"crs": { "type": "name", "properties": { "name": "urn:ogc:def:crs:OGC:1.3:CRS84" } },
"features": [
{ "type": "Feature", "properties": { "osm_id": 954378401, "name": "Government Ayurvedic Centre, Bundla", "kind": "doctors" }, "geometry": { "type": "Point", "coordinates": [ 76.5430047, 32.1379945 ] } },
{ "type": "Feature", "properties": { "osm_id": 1227498529, "name": "Men Tsee Khang", "kind": "hospital" }, "geometry": { "type": "Point", "coordinates": [ 76.3248242, 32.2391459 ] } },
{ "type": "Feature", "properties": { "osm_id": 1446931052, "name": "Tibetan Primary Health Centre", "kind": "hospital" }, "geometry": { "type": "Point", "coordinates": [ 76.7128791, 32.0377259 ] } },
{ "type": "Feature", "properties": { "osm_id": 2378804047, "name": "Nishta Dispensary", "kind": "clinic" }, "geometry": { "type": "Point", "coordinates": [ 76.3686412, 32.1997149 ] } },
{ "type": "Feature", "properties": { "osm_id": 2378804065, "name": "Dr Amit Verma", "kind": "doctors" }, "geometry": { "type": "Point", "coordinates": [ 76.3630339, 32.1958691 ] } },
{ "type": "Feature", "properties": { "osm_id": 2505542244, "name": "Dr. Lobsang Dolma Khangsar Memorial Clinic", "kind": "hospital" }, "geometry": { "type": "Point", "coordinates": [ 76.3242626, 32.2370911 ] } },
{ "type": "Feature", "properties": { "osm_id": 2506336413, "name": "Prayas", "kind": "clinic" }, "geometry": { "type": "Point", "coordinates": [ 76.323793, 32.2075429 ] } },
{ "type": "Feature", "properties": { "osm_id": 2945635687, "name": "Kandbari Dispensary", "kind": "clinic" }, "geometry": { "type": "Point", "coordinates": [ 76.5750954, 32.1118178 ] } },
{ "type": "Feature", "properties": { "osm_id": 2945645938, "name": "Primary Health Centre Nanahar", "kind": "clinic" }, "geometry": { "type": "Point", "coordinates": [ 76.5852096, 32.1193716 ] } },
{ "type": "Feature", "properties": { "osm_id": 2945658616, "name": "Primary Health Centre Saperu", "kind": "clinic" }, "geometry": { "type": "Point", "coordinates": [ 76.5726359, 32.1252703 ] } },
{ "type": "Feature", "properties": { "osm_id": 2945983319, "name": "Kayakalp", "kind": "clinic" }, "geometry": { "type": "Point", "coordinates": [ 76.5497255, 32.1081808 ] } },
{ "type": "Feature", "properties": { "osm_id": 3006932375, "name": "Om Krishna Foundation Dispensary", "kind": "pharmacy" }, "geometry": { "type": "Point", "coordinates": [ 76.3640674, 32.1988756 ] } },
{ "type": "Feature", "properties": { "osm_id": 3040888831, "name": "Dr.Rajendra Prasad Govt. Medical College & Hospital", "kind": "hospital" }, "geometry": { "type": "Point", "coordinates": [ 76.3007545, 32.0985488 ] } },
{ "type": "Feature", "properties": { "osm_id": 3043532828, "name": "Fortis Hospital", "kind": "hospital" }, "geometry": { "type": "Point", "coordinates": [ 76.2820112, 32.1160561 ] } },
{ "type": "Feature", "properties": { "osm_id": 3043538944, "name": "Mapel Leaf Hospital", "kind": "hospital" }, "geometry": { "type": "Point", "coordinates": [ 76.2709672, 32.0994628 ] } },
{ "type": "Feature", "properties": { "osm_id": 3043540876, "name": "Civil Hospital, Kangra", "kind": "hospital" }, "geometry": { "type": "Point", "coordinates": [ 76.2729831, 32.1029894 ] } },
{ "type": "Feature", "properties": { "osm_id": 3043550571, "name": "PHC, Tiara", "kind": "centre" }, "geometry": { "type": "Point", "coordinates": [ 76.2428685, 32.1375786 ] } },
{ "type": "Feature", "properties": { "osm_id": 3045379996, "name": "Sullah PHC", "kind": "centre" }, "geometry": { "type": "Point", "coordinates": [ 76.4703048, 32.0615576 ] } },
{ "type": "Feature", "properties": { "osm_id": 3045415366, "name": "Karan Hospital, Kangra", "kind": "hospital" }, "geometry": { "type": "Point", "coordinates": [ 76.5300674, 32.0957832 ] } },
{ "type": "Feature", "properties": { "osm_id": 3045673672, "name": "Lifeline Hospital", "kind": "hospital" }, "geometry": { "type": "Point", "coordinates": [ 75.7850415, 32.2804026 ] } },
{ "type": "Feature", "properties": { "osm_id": 3045682651, "name": "Saxena Hospital, Jassur", "kind": "hospital" }, "geometry": { "type": "Point", "coordinates": [ 75.8504383, 32.2836101 ] } },
{ "type": "Feature", "properties": { "osm_id": 3045696250, "name": "Civil Hospital, Nurpur", "kind": "hospital" }, "geometry": { "type": "Point", "coordinates": [ 75.8943791, 32.3068426 ] } },
{ "type": "Feature", "properties": { "osm_id": 3047132196, "name": "Civil Hospital, Chadiar", "kind": "hospital" }, "geometry": { "type": "Point", "coordinates": [ 76.6472531, 31.941717 ] } },
{ "type": "Feature", "properties": { "osm_id": 3066946979, "name": "Simi Tandon", "kind": "dentist" }, "geometry": { "type": "Point", "coordinates": [ 76.3179563, 32.2165438 ] } },
{ "type": "Feature", "properties": { "osm_id": 3138698073, "name": "Baba Medical and General Store", "kind": "pharmacy" }, "geometry": { "type": "Point", "coordinates": [ 76.3211465, 32.2124629 ] } },
{ "type": "Feature", "properties": { "osm_id": 3143592069, "name": "Medical Store", "kind": "pharmacy" }, "geometry": { "type": "Point", "coordinates": [ 76.3276859, 32.2179608 ] } },
{ "type": "Feature", "properties": { "osm_id": 3145384590, "name": "Akshay Medical Store", "kind": "pharmacy" }, "geometry": { "type": "Point", "coordinates": [ 76.3235003, 32.2161683 ] } },
{ "type": "Feature", "properties": { "osm_id": 4226231823, "name": "Men Tsee Khang", "kind": "clinic" }, "geometry": { "type": "Point", "coordinates": [ 76.7124344, 32.0387692 ] } },
{ "type": "Feature", "properties": { "osm_id": 4343625288, "name": "Ganesh Medicos", "kind": "pharmacy" }, "geometry": { "type": "Point", "coordinates": [ 76.3615023, 32.1874221 ] } },
{ "type": "Feature", "properties": { "osm_id": 4377256236, "name": "Nirdosh Children Hospital", "kind": "hospital" }, "geometry": { "type": "Point", "coordinates": [ 76.5393763, 32.1090238 ] } },
{ "type": "Feature", "properties": { "osm_id": 4377264929, "name": "Kapila Nursing Home", "kind": "hospital" }, "geometry": { "type": "Point", "coordinates": [ 76.539992, 32.1085476 ] } },
{ "type": "Feature", "properties": { "osm_id": 4462003628, "name": "Sushma Hospital And Women Care Centre", "kind": "hospital" }, "geometry": { "type": "Point", "coordinates": [ 76.5418397, 32.117127 ] } },
{ "type": "Feature", "properties": { "osm_id": 4791836326, "name": "Khanna Clinic & Diagnostics", "kind": "clinic" }, "geometry": { "type": "Point", "coordinates": [ 76.3269226, 32.2313927 ] } },
{ "type": "Feature", "properties": { "osm_id": 4864265822, "name": "Maa Chamunda medical agencies", "kind": "pharmacy" }, "geometry": { "type": "Point", "coordinates": [ 76.7127948, 32.0378325 ] } },
{ "type": "Feature", "properties": { "osm_id": 4873456222, "name": "Bir Medical Hall", "kind": "pharmacy" }, "geometry": { "type": "Point", "coordinates": [ 76.7249657, 32.0444335 ] } },
{ "type": "Feature", "properties": { "osm_id": 4903806321, "name": "Noble Medical Store", "kind": "pharmacy" }, "geometry": { "type": "Point", "coordinates": [ 76.3241983, 32.237277 ] } },
{ "type": "Feature", "properties": { "osm_id": 5059844027, "name": "Sukhani medical store", "kind": "pharmacy" }, "geometry": { "type": "Point", "coordinates": [ 76.3714575, 32.1839166 ] } },
{ "type": "Feature", "properties": { "osm_id": 5118692773, "name": "unnamed", "kind": "yes" }, "geometry": { "type": "Point", "coordinates": [ 76.3876065, 32.1105509 ] } },
{ "type": "Feature", "properties": { "osm_id": 5118693010, "name": "Panchsheel Nursing Home Pvt Ltd", "kind": "clinic" }, "geometry": { "type": "Point", "coordinates": [ 76.3874964, 32.1107931 ] } },
{ "type": "Feature", "properties": { "osm_id": 5160193121, "name": "unnamed", "kind": "doctors" }, "geometry": { "type": "Point", "coordinates": [ 75.8935936, 32.3032201 ] } },
{ "type": "Feature", "properties": { "osm_id": 5190546490, "name": "unnamed", "kind": "doctors" }, "geometry": { "type": "Point", "coordinates": [ 76.3217518, 32.2250806 ] } },
{ "type": "Feature", "properties": { "osm_id": 5193333332, "name": "Kehar Dental Clinic", "kind": "dentist" }, "geometry": { "type": "Point", "coordinates": [ 76.5342578, 32.1059292 ] } },
{ "type": "Feature", "properties": { "osm_id": 5217517524, "name": "Phisiotherapy & sports injury clinic", "kind": "doctors" }, "geometry": { "type": "Point", "coordinates": [ 76.3192057, 32.2168769 ] } },
{ "type": "Feature", "properties": { "osm_id": 5217518521, "name": "Manocha Medicave and General Store", "kind": "pharmacy" }, "geometry": { "type": "Point", "coordinates": [ 76.3188017, 32.2193026 ] } },
{ "type": "Feature", "properties": { "osm_id": 5217518523, "name": "Tibetan Delek Hospital", "kind": "clinic" }, "geometry": { "type": "Point", "coordinates": [ 76.3226581, 32.2258196 ] } },
{ "type": "Feature", "properties": { "osm_id": 5217518921, "name": "Swastik dental & oral health clinic", "kind": "dentist" }, "geometry": { "type": "Point", "coordinates": [ 76.321195, 32.2127932 ] } },
{ "type": "Feature", "properties": { "osm_id": 5511330999, "name": "Milap Medical Centre", "kind": "clinic" }, "geometry": { "type": "Point", "coordinates": [ 76.5345727, 32.1058278 ] } },
{ "type": "Feature", "properties": { "osm_id": 6033473986, "name": "Kerala Ayurveda House", "kind": "clinic" }, "geometry": { "type": "Point", "coordinates": [ 76.3284083, 32.2455885 ] } },
{ "type": "Feature", "properties": { "osm_id": 6255244375, "name": "Rotary Eye Hospital", "kind": "hospital" }, "geometry": { "type": "Point", "coordinates": [ 76.7207454, 32.0329907 ] } },
{ "type": "Feature", "properties": { "osm_id": 6267947860, "name": "Community Health Centre - Bir", "kind": "clinic" }, "geometry": { "type": "Point", "coordinates": [ 76.7265187, 32.0439528 ] } },
{ "type": "Feature", "properties": { "osm_id": 6370422614, "name": "unnamed", "kind": "pharmacy" }, "geometry": { "type": "Point", "coordinates": [ 76.7151815, 32.0356573 ] } },
{ "type": "Feature", "properties": { "osm_id": 6398420648, "name": "Bir Billing Dental Clinic", "kind": "dentist" }, "geometry": { "type": "Point", "coordinates": [ 76.7109909, 32.0406652 ] } },
{ "type": "Feature", "properties": { "osm_id": 6503117872, "name": "unnamed", "kind": "clinic" }, "geometry": { "type": "Point", "coordinates": [ 76.321657, 32.2100701 ] } },
{ "type": "Feature", "properties": { "osm_id": 6569039638, "name": "Veterinary Dispensary", "kind": "pharmacy" }, "geometry": { "type": "Point", "coordinates": [ 76.3617798, 32.1853834 ] } },
{ "type": "Feature", "properties": { "osm_id": 6582140017, "name": "Kanwar Medical and General Store", "kind": "pharmacy" }, "geometry": { "type": "Point", "coordinates": [ 76.3655736, 32.1860705 ] } },
{ "type": "Feature", "properties": { "osm_id": 6591680534, "name": "Chemists Shop", "kind": "pharmacy" }, "geometry": { "type": "Point", "coordinates": [ 76.3183733, 32.2186612 ] } },
{ "type": "Feature", "properties": { "osm_id": 6611356245, "name": "unnamed", "kind": "pharmacy" }, "geometry": { "type": "Point", "coordinates": [ 76.2954862, 32.1307359 ] } },
{ "type": "Feature", "properties": { "osm_id": 6612478372, "name": "unnamed", "kind": "hospital" }, "geometry": { "type": "Point", "coordinates": [ 76.221052, 31.8573586 ] } },
{ "type": "Feature", "properties": { "osm_id": 6986034928, "name": "Civil Hospital, Nagrota Bagwan", "kind": "hospital" }, "geometry": { "type": "Point", "coordinates": [ 76.3787904, 32.1069869 ] } },
{ "type": "Feature", "properties": { "osm_id": 6986137960, "name": "Government Hospital, Bhawarna", "kind": "hospital" }, "geometry": { "type": "Point", "coordinates": [ 76.4955959, 32.0389508 ] } },
{ "type": "Feature", "properties": { "osm_id": 6986163209, "name": "S.M Eye Hospital", "kind": "hospital" }, "geometry": { "type": "Point", "coordinates": [ 76.2744217, 32.1077253 ] } },
{ "type": "Feature", "properties": { "osm_id": 6988130904, "name": "Shree Balaji Hospital, Adarsh Colony", "kind": "hospital" }, "geometry": { "type": "Point", "coordinates": [ 76.2795541, 32.1149737 ] } },
{ "type": "Feature", "properties": { "osm_id": 6988144579, "name": "Civil Hospital, Dehra", "kind": "hospital" }, "geometry": { "type": "Point", "coordinates": [ 76.2127669, 31.8819861 ] } },
{ "type": "Feature", "properties": { "osm_id": 6988155844, "name": "Community Health Centre, Jawali", "kind": "centre" }, "geometry": { "type": "Point", "coordinates": [ 76.0135232, 32.1427307 ] } },
{ "type": "Feature", "properties": { "osm_id": 6988196933, "name": "Sai Mahima Hospital, Dharamshala", "kind": "hospital" }, "geometry": { "type": "Point", "coordinates": [ 76.3246675, 32.2150749 ] } },
{ "type": "Feature", "properties": { "osm_id": 6988279097, "name": "Community Health Centre, Jawalamukhi", "kind": "centre" }, "geometry": { "type": "Point", "coordinates": [ 76.3212128, 31.8680889 ] } },
{ "type": "Feature", "properties": { "osm_id": 6990475910, "name": "Civil Hospital, Shahpur", "kind": "hospital" }, "geometry": { "type": "Point", "coordinates": [ 76.1743471, 32.2189168 ] } },
{ "type": "Feature", "properties": { "osm_id": 6990615016, "name": "Sood Nursing Home, Kangra", "kind": "clinic" }, "geometry": { "type": "Point", "coordinates": [ 76.3838893, 32.1128359 ] } },
{ "type": "Feature", "properties": { "osm_id": 6990652777, "name": "Shesh Awashti Memorial Dtil Hospital", "kind": "hospital" }, "geometry": { "type": "Point", "coordinates": [ 76.6494387, 32.0530375 ] } },
{ "type": "Feature", "properties": { "osm_id": 6990654531, "name": "Dr.Vijay Chaudhary Hospital", "kind": "hospital" }, "geometry": { "type": "Point", "coordinates": [ 76.5336598, 32.0991584 ] } },
{ "type": "Feature", "properties": { "osm_id": 6993508916, "name": "Civil Hospital, Bajinath", "kind": "hospital" }, "geometry": { "type": "Point", "coordinates": [ 76.6428633, 32.0511642 ] } },
{ "type": "Feature", "properties": { "osm_id": 6993508926, "name": "Guleria ENT Hospital", "kind": "hospital" }, "geometry": { "type": "Point", "coordinates": [ 76.3572335, 32.1884205 ] } },
{ "type": "Feature", "properties": { "osm_id": 6993971554, "name": "District Ayurvedic Hospital, Dharamshala", "kind": "hospital" }, "geometry": { "type": "Point", "coordinates": [ 76.3202615, 32.2137617 ] } },
{ "type": "Feature", "properties": { "osm_id": 6994309629, "name": "Civil Hospital, Thural", "kind": "hospital" }, "geometry": { "type": "Point", "coordinates": [ 76.459592, 31.9254151 ] } },
{ "type": "Feature", "properties": { "osm_id": 7010648682, "name": "Civil Hospital, Chintpurni", "kind": "hospital" }, "geometry": { "type": "Point", "coordinates": [ 76.1046378, 31.808957 ] } },
{ "type": "Feature", "properties": { "osm_id": 7013228969, "name": "Smile Dental Clinic", "kind": "clinic" }, "geometry": { "type": "Point", "coordinates": [ 75.852069, 32.2826531 ] } },
{ "type": "Feature", "properties": { "osm_id": 7013395535, "name": "Civil Hospital, Fatehpur", "kind": "hospital" }, "geometry": { "type": "Point", "coordinates": [ 75.9351276, 32.0996469 ] } },
{ "type": "Feature", "properties": { "osm_id": 7016046761, "name": "Dr.V.K.Mahajan Clinic Diagnostic and Treatment Centre", "kind": "clinic" }, "geometry": { "type": "Point", "coordinates": [ 76.2744726, 32.1054624 ] } },
{ "type": "Feature", "properties": { "osm_id": 7016058802, "name": "NavJeewan Hospital, Kangra", "kind": "hospital" }, "geometry": { "type": "Point", "coordinates": [ 76.3149539, 31.8789356 ] } },
{ "type": "Feature", "properties": { "osm_id": 7016100397, "name": "Government Hospital", "kind": "hospital" }, "geometry": { "type": "Point", "coordinates": [ 76.0978572, 32.0551994 ] } },
{ "type": "Feature", "properties": { "osm_id": 7016122145, "name": "Vijay Multispeciality Hospital", "kind": "hospital" }, "geometry": { "type": "Point", "coordinates": [ 75.8602779, 32.2845329 ] } },
{ "type": "Feature", "properties": { "osm_id": 7016145736, "name": "CHC, Indora", "kind": "centre" }, "geometry": { "type": "Point", "coordinates": [ 75.6885038, 32.138369 ] } },
{ "type": "Feature", "properties": { "osm_id": 7150766876, "name": "CHC Budhabar", "kind": "centre" }, "geometry": { "type": "Point", "coordinates": [ 75.701058, 32.044847 ] } },
{ "type": "Feature", "properties": { "osm_id": 7165541938, "name": "Health Centre", "kind": "centre" }, "geometry": { "type": "Point", "coordinates": [ 76.1360395, 32.0691815 ] } },
{ "type": "Feature", "properties": { "osm_id": 7165541940, "name": "PHC, Paral", "kind": "centre" }, "geometry": { "type": "Point", "coordinates": [ 75.7495302, 32.0525346 ] } },
{ "type": "Feature", "properties": { "osm_id": 7165541945, "name": "PHC, Holta", "kind": "centre" }, "geometry": { "type": "Point", "coordinates": [ 76.5470254, 32.1031646 ] } },
{ "type": "Feature", "properties": { "osm_id": 7165541948, "name": "PHC, Lunj", "kind": "centre" }, "geometry": { "type": "Point", "coordinates": [ 76.1413108, 32.0966203 ] } },
{ "type": "Feature", "properties": { "osm_id": 7165541949, "name": "CHC, Khaira", "kind": "centre" }, "geometry": { "type": "Point", "coordinates": [ 76.523969, 31.979358 ] } },
{ "type": "Feature", "properties": { "osm_id": 7165541950, "name": "PHC, Jhiklichhi", "kind": "centre" }, "geometry": { "type": "Point", "coordinates": [ 76.279591, 32.1484881 ] } },
{ "type": "Feature", "properties": { "osm_id": 7165541957, "name": "PHC, Kherian", "kind": "centre" }, "geometry": { "type": "Point", "coordinates": [ 75.9421687, 32.2829076 ] } },
{ "type": "Feature", "properties": { "osm_id": 7165541965, "name": "PHC, Pharer", "kind": "centre" }, "geometry": { "type": "Point", "coordinates": [ 76.4728098, 32.079916 ] } },
{ "type": "Feature", "properties": { "osm_id": 7165541967, "name": "PHC, Panchrukhi", "kind": "centre" }, "geometry": { "type": "Point", "coordinates": [ 76.5652089, 32.0593225 ] } },
{ "type": "Feature", "properties": { "osm_id": 7165541968, "name": "Primary Heatlh Clinic, Pragpur", "kind": "centre" }, "geometry": { "type": "Point", "coordinates": [ 76.2159714, 31.8173562 ] } },
{ "type": "Feature", "properties": { "osm_id": 7165541969, "name": "CHC, Nagrota Surian", "kind": "centre" }, "geometry": { "type": "Point", "coordinates": [ 76.0828741, 32.0535511 ] } },
{ "type": "Feature", "properties": { "osm_id": 7165541972, "name": "Government Hospital, Badukhar", "kind": "hospital" }, "geometry": { "type": "Point", "coordinates": [ 75.8256483, 32.0433573 ] } },
{ "type": "Feature", "properties": { "osm_id": 7165541976, "name": "PHC, Kuther", "kind": "centre" }, "geometry": { "type": "Point", "coordinates": [ 76.0630811, 32.2205037 ] } },
{ "type": "Feature", "properties": { "osm_id": 7165541979, "name": "PHC, Bharmar", "kind": "centre" }, "geometry": { "type": "Point", "coordinates": [ 75.9499285, 32.1723939 ] } },
{ "type": "Feature", "properties": { "osm_id": 7165541983, "name": "PHC, Gheen", "kind": "centre" }, "geometry": { "type": "Point", "coordinates": [ 76.2723862, 31.9565979 ] } },
{ "type": "Feature", "properties": { "osm_id": 7165541984, "name": "PHC, Hatli Jamwalan", "kind": "centre" }, "geometry": { "type": "Point", "coordinates": [ 75.9286105, 32.3268752 ] } },
{ "type": "Feature", "properties": { "osm_id": 7165541986, "name": "PHC, Nurpur", "kind": "centre" }, "geometry": { "type": "Point", "coordinates": [ 75.882695, 32.30106 ] } },
{ "type": "Feature", "properties": { "osm_id": 7165541988, "name": "Government Civil Dispensary, Jassur", "kind": "clinic" }, "geometry": { "type": "Point", "coordinates": [ 75.8515486, 32.2834789 ] } },
{ "type": "Feature", "properties": { "osm_id": 7165541989, "name": "PHC, Nanon", "kind": "centre" }, "geometry": { "type": "Point", "coordinates": [ 76.4648526, 32.0367312 ] } },
{ "type": "Feature", "properties": { "osm_id": 7165541991, "name": "PHC, Kotla", "kind": "centre" }, "geometry": { "type": "Point", "coordinates": [ 76.0437803, 32.2378895 ] } },
{ "type": "Feature", "properties": { "osm_id": 7165541992, "name": "PHC, Sakri", "kind": "centre" }, "geometry": { "type": "Point", "coordinates": [ 76.634854, 32.006837 ] } },
{ "type": "Feature", "properties": { "osm_id": 7165541994, "name": "PHC, Darkata", "kind": "centre" }, "geometry": { "type": "Point", "coordinates": [ 76.221365, 32.003185 ] } },
{ "type": "Feature", "properties": { "osm_id": 7165541998, "name": "PHC, Majhin", "kind": "centre" }, "geometry": { "type": "Point", "coordinates": [ 76.392012, 31.822318 ] } },
{ "type": "Feature", "properties": { "osm_id": 7165541999, "name": "Rajiv Gandhi Government Ayurvedic Hospital", "kind": "hospital" }, "geometry": { "type": "Point", "coordinates": [ 76.6273589, 32.0497801 ] } },
{ "type": "Feature", "properties": { "osm_id": 7165542002, "name": "CHC, Kasba Kotla", "kind": "centre" }, "geometry": { "type": "Point", "coordinates": [ 75.994673, 31.886576 ] } },
{ "type": "Feature", "properties": { "osm_id": 7165542004, "name": "CHC, Gangath", "kind": "centre" }, "geometry": { "type": "Point", "coordinates": [ 75.8280482, 32.2251042 ] } },
{ "type": "Feature", "properties": { "osm_id": 7165542006, "name": "PHC, Dari", "kind": "centre" }, "geometry": { "type": "Point", "coordinates": [ 76.3360775, 32.2013416 ] } },
{ "type": "Feature", "properties": { "osm_id": 7165542007, "name": "Civil Hospital, Jawalamukhi", "kind": "hospital" }, "geometry": { "type": "Point", "coordinates": [ 76.3222786, 31.8673137 ] } },
{ "type": "Feature", "properties": { "osm_id": 7165542008, "name": "PHC, Banuri Khas", "kind": "centre" }, "geometry": { "type": "Point", "coordinates": [ 76.566092, 32.0914897 ] } },
{ "type": "Feature", "properties": { "osm_id": 7165542010, "name": "PHC, Garh", "kind": "centre" }, "geometry": { "type": "Point", "coordinates": [ 76.484769, 31.972657 ] } },
{ "type": "Feature", "properties": { "osm_id": 7165542014, "name": "PHC, Chamunda", "kind": "centre" }, "geometry": { "type": "Point", "coordinates": [ 76.417887, 32.1513909 ] } },
{ "type": "Feature", "properties": { "osm_id": 7165542015, "name": "CHC, Thural", "kind": "centre" }, "geometry": { "type": "Point", "coordinates": [ 76.4595191, 31.9267758 ] } },
{ "type": "Feature", "properties": { "osm_id": 7165542017, "name": "Government Hospital, Dadasibha", "kind": "hospital" }, "geometry": { "type": "Point", "coordinates": [ 76.090262, 31.925581 ] } },
{ "type": "Feature", "properties": { "osm_id": 7165542020, "name": "Civil Hospital, Jaisinghpur", "kind": "hospital" }, "geometry": { "type": "Point", "coordinates": [ 76.605537, 31.899607 ] } },
{ "type": "Feature", "properties": { "osm_id": 7165542021, "name": "PHC, Branda", "kind": "centre" }, "geometry": { "type": "Point", "coordinates": [ 75.7858589, 32.2544087 ] } },
{ "type": "Feature", "properties": { "osm_id": 7165542026, "name": "Government Hospital, Haripur", "kind": "hospital" }, "geometry": { "type": "Point", "coordinates": [ 76.156599, 31.998434 ] } },
{ "type": "Feature", "properties": { "osm_id": 7165542029, "name": "PHC, Kothi Kohar", "kind": "centre" }, "geometry": { "type": "Point", "coordinates": [ 76.798187, 32.080449 ] } },
{ "type": "Feature", "properties": { "osm_id": 7165542030, "name": "PHC, Ladori", "kind": "centre" }, "geometry": { "type": "Point", "coordinates": [ 75.9486309, 32.3545213 ] } },
{ "type": "Feature", "properties": { "osm_id": 7165542031, "name": "Civil Hospital, Garli", "kind": "hospital" }, "geometry": { "type": "Point", "coordinates": [ 76.2415742, 31.8116868 ] } },
{ "type": "Feature", "properties": { "osm_id": 7165542034, "name": "PHC, Dhameta", "kind": "centre" }, "geometry": { "type": "Point", "coordinates": [ 75.963443, 32.041643 ] } },
{ "type": "Feature", "properties": { "osm_id": 7165542036, "name": "CHC, Gopalpur", "kind": "centre" }, "geometry": { "type": "Point", "coordinates": [ 76.4537615, 32.1423055 ] } },
{ "type": "Feature", "properties": { "osm_id": 7165542038, "name": "PHC, Chari", "kind": "centre" }, "geometry": { "type": "Point", "coordinates": [ 76.26094, 32.206566 ] } },
{ "type": "Feature", "properties": { "osm_id": 7165542040, "name": "PHC, Durana", "kind": "centre" }, "geometry": { "type": "Point", "coordinates": [ 76.0925373, 32.162804 ] } },
{ "type": "Feature", "properties": { "osm_id": 7165542043, "name": "CHC, Rehan", "kind": "centre" }, "geometry": { "type": "Point", "coordinates": [ 75.9101238, 32.1626872 ] } },
{ "type": "Feature", "properties": { "osm_id": 7165542045, "name": "PHC, Khundian", "kind": "centre" }, "geometry": { "type": "Point", "coordinates": [ 76.379504, 31.911326 ] } },
{ "type": "Feature", "properties": { "osm_id": 7165542047, "name": "PHC, Lambagaon", "kind": "centre" }, "geometry": { "type": "Point", "coordinates": [ 76.559071, 31.8997797 ] } },
{ "type": "Feature", "properties": { "osm_id": 7165542048, "name": "PHC, Hagwal", "kind": "centre" }, "geometry": { "type": "Point", "coordinates": [ 75.7148546, 32.2593276 ] } },
{ "type": "Feature", "properties": { "osm_id": 7165542051, "name": "PHC, Dharun", "kind": "centre" }, "geometry": { "type": "Point", "coordinates": [ 76.0105639, 32.2371668 ] } },
{ "type": "Feature", "properties": { "osm_id": 7165542054, "name": "PHC, Daroh", "kind": "centre" }, "geometry": { "type": "Point", "coordinates": [ 76.477521, 31.999116 ] } },
{ "type": "Feature", "properties": { "osm_id": 7165542057, "name": "PHC, Naura", "kind": "centre" }, "geometry": { "type": "Point", "coordinates": [ 76.449179, 31.9835028 ] } },
{ "type": "Feature", "properties": { "osm_id": 7165542059, "name": "PHC, Gharjarot", "kind": "centre" }, "geometry": { "type": "Point", "coordinates": [ 76.064048, 32.088886 ] } },
{ "type": "Feature", "properties": { "osm_id": 7165542064, "name": "PHC, Takipur", "kind": "centre" }, "geometry": { "type": "Point", "coordinates": [ 76.251147, 32.041879 ] } },
{ "type": "Feature", "properties": { "osm_id": 7165542066, "name": "Lapiana PHC", "kind": "centre" }, "geometry": { "type": "Point", "coordinates": [ 76.117484, 32.130537 ] } },
{ "type": "Feature", "properties": { "osm_id": 7165542074, "name": "PHC, Bhatoli Phakorian", "kind": "centre" }, "geometry": { "type": "Point", "coordinates": [ 76.135568, 31.974558 ] } },
{ "type": "Feature", "properties": { "osm_id": 7165542075, "name": "CHC, Jawali", "kind": "centre" }, "geometry": { "type": "Point", "coordinates": [ 76.013875, 32.142494 ] } },
{ "type": "Feature", "properties": { "osm_id": 7165542078, "name": "PHC, Bachhwai", "kind": "centre" }, "geometry": { "type": "Point", "coordinates": [ 76.4243602, 31.9199848 ] } },
{ "type": "Feature", "properties": { "osm_id": 7165542081, "name": "PHC, Mcleodganj", "kind": "centre" }, "geometry": { "type": "Point", "coordinates": [ 76.3242123, 32.2378159 ] } },
{ "type": "Feature", "properties": { "osm_id": 7165542083, "name": "CHC, Dheera", "kind": "centre" }, "geometry": { "type": "Point", "coordinates": [ 76.451341, 32.013058 ] } },
{ "type": "Feature", "properties": { "osm_id": 7165542086, "name": "CHC, Rey", "kind": "centre" }, "geometry": { "type": "Point", "coordinates": [ 75.8591581, 31.986793 ] } },
{ "type": "Feature", "properties": { "osm_id": 7165542088, "name": "PHC, Tarmehar", "kind": "centre" }, "geometry": { "type": "Point", "coordinates": [ 76.8583252, 32.0767541 ] } },
{ "type": "Feature", "properties": { "osm_id": 7470506909, "name": "unnamed", "kind": "pharmacy" }, "geometry": { "type": "Point", "coordinates": [ 76.7266253, 32.0444417 ] } },
{ "type": "Feature", "properties": { "osm_id": 7637726833, "name": "Jawali Hospital", "kind": "hospital" }, "geometry": { "type": "Point", "coordinates": [ 76.001289, 32.146598 ] } },
{ "type": "Feature", "properties": { "osm_id": 7637726834, "name": "Amrit Hospital", "kind": "hospital" }, "geometry": { "type": "Point", "coordinates": [ 76.1877602, 31.8493498 ] } },
{ "type": "Feature", "properties": { "osm_id": 7637726836, "name": "Dr. Neena Pahwa Hospital", "kind": "hospital" }, "geometry": { "type": "Point", "coordinates": [ 76.2832867, 32.1163515 ] } },
{ "type": "Feature", "properties": { "osm_id": 7637726840, "name": "Delek Hospital", "kind": "hospital" }, "geometry": { "type": "Point", "coordinates": [ 76.322693, 32.225589 ] } },
{ "type": "Feature", "properties": { "osm_id": 7637726844, "name": "Ashok Memorial Hospital", "kind": "hospital" }, "geometry": { "type": "Point", "coordinates": [ 75.940484, 32.195606 ] } },
{ "type": "Feature", "properties": { "osm_id": 7637726845, "name": "Shukla Hospital", "kind": "hospital" }, "geometry": { "type": "Point", "coordinates": [ 76.326618, 32.219137 ] } },
{ "type": "Feature", "properties": { "osm_id": 7637726854, "name": "Primary Health Centre", "kind": "centre" }, "geometry": { "type": "Point", "coordinates": [ 76.4115802, 32.0417581 ] } },
{ "type": "Feature", "properties": { "osm_id": 7637726855, "name": "ECHS Polyclinic", "kind": "clinic" }, "geometry": { "type": "Point", "coordinates": [ 76.3817401, 32.1741167 ] } },
{ "type": "Feature", "properties": { "osm_id": 7637726856, "name": "Sukhamni Hospital", "kind": "hospital" }, "geometry": { "type": "Point", "coordinates": [ 75.913745, 32.213713 ] } },
{ "type": "Feature", "properties": { "osm_id": 7637726858, "name": "Jan Jeevan Hospital", "kind": "hospital" }, "geometry": { "type": "Point", "coordinates": [ 75.991126, 32.148026 ] } },
{ "type": "Feature", "properties": { "osm_id": 7637726866, "name": "Sukhmani Hospital", "kind": "hospital" }, "geometry": { "type": "Point", "coordinates": [ 75.9101435, 32.2182348 ] } },
{ "type": "Feature", "properties": { "osm_id": 7637726869, "name": "Dr. KD Eye Hospital", "kind": "hospital" }, "geometry": { "type": "Point", "coordinates": [ 76.28138, 32.11408 ] } },
{ "type": "Feature", "properties": { "osm_id": 7637726871, "name": "Shukla Hospital", "kind": "hospital" }, "geometry": { "type": "Point", "coordinates": [ 76.3245945, 32.2170373 ] } },
{ "type": "Feature", "properties": { "osm_id": 7637726875, "name": "Jeeevan Jyoti Hospital", "kind": "hospital" }, "geometry": { "type": "Point", "coordinates": [ 75.913429, 32.214537 ] } },
{ "type": "Feature", "properties": { "osm_id": 7637726877, "name": "Tibetan Physiotherapy Clinic", "kind": "clinic" }, "geometry": { "type": "Point", "coordinates": [ 76.3259739, 32.2365565 ] } },
{ "type": "Feature", "properties": { "osm_id": 7637726882, "name": "Sai Hospital", "kind": "hospital" }, "geometry": { "type": "Point", "coordinates": [ 76.0904824, 32.0523152 ] } },
{ "type": "Feature", "properties": { "osm_id": 7637726888, "name": "Surya Hospital", "kind": "hospital" }, "geometry": { "type": "Point", "coordinates": [ 75.9113552, 32.2074685 ] } },
{ "type": "Feature", "properties": { "osm_id": 7637726890, "name": "City Hospital", "kind": "hospital" }, "geometry": { "type": "Point", "coordinates": [ 76.2956749, 32.1248382 ] } },
{ "type": "Feature", "properties": { "osm_id": 7637726891, "name": "JVR Eye Hospital", "kind": "hospital" }, "geometry": { "type": "Point", "coordinates": [ 75.8501415, 32.2807145 ] } },
{ "type": "Feature", "properties": { "osm_id": 7637784305, "name": "Nurpur Hospital", "kind": "hospital" }, "geometry": { "type": "Point", "coordinates": [ 75.885272, 32.300102 ] } },
{ "type": "Feature", "properties": { "osm_id": 7637784307, "name": "Anand Hospital", "kind": "hospital" }, "geometry": { "type": "Point", "coordinates": [ 76.29683, 32.108351 ] } },
{ "type": "Feature", "properties": { "osm_id": 7852758204, "name": "Krishna Hospital", "kind": "hospital" }, "geometry": { "type": "Point", "coordinates": [ 75.666659, 32.258505 ] } },
{ "type": "Feature", "properties": { "osm_id": 8008968435, "name": "Shri Sai Medical and General Store", "kind": "pharmacy" }, "geometry": { "type": "Point", "coordinates": [ 76.3197777, 32.2136056 ] } },
{ "type": "Feature", "properties": { "osm_id": 8008968437, "name": "Mahajan Medical Agencies", "kind": "pharmacy" }, "geometry": { "type": "Point", "coordinates": [ 76.3196141, 32.2136446 ] } },
{ "type": "Feature", "properties": { "osm_id": 8049121905, "name": "SubCentre, JheerBalla", "kind": "centre" }, "geometry": { "type": "Point", "coordinates": [ 76.1925673, 32.1431713 ] } },
{ "type": "Feature", "properties": { "osm_id": 8049121917, "name": "SubCentre, Balugaloa", "kind": "centre" }, "geometry": { "type": "Point", "coordinates": [ 76.2610146, 31.940136 ] } },
{ "type": "Feature", "properties": { "osm_id": 8049181358, "name": "SubCentre, Thana Bargran", "kind": "centre" }, "geometry": { "type": "Point", "coordinates": [ 76.2732723, 32.0216943 ] } },
{ "type": "Feature", "properties": { "osm_id": 8049191750, "name": "SubCentre, Old Kangra", "kind": "centre" }, "geometry": { "type": "Point", "coordinates": [ 76.2634957, 32.0948912 ] } },
{ "type": "Feature", "properties": { "osm_id": 8049220154, "name": "SubCentre, Zamanabad", "kind": "centre" }, "geometry": { "type": "Point", "coordinates": [ 76.2666392, 32.1181928 ] } },
{ "type": "Feature", "properties": { "osm_id": 8049387141, "name": "SubCentre, Harchakian", "kind": "centre" }, "geometry": { "type": "Point", "coordinates": [ 76.0972095, 32.1504407 ] } },
{ "type": "Feature", "properties": { "osm_id": 8049429396, "name": "Primary Health Centre, Lambagaon", "kind": "centre" }, "geometry": { "type": "Point", "coordinates": [ 76.5626733, 31.8966699 ] } },
{ "type": "Feature", "properties": { "osm_id": 8156828339, "name": "SubCentre,Hara", "kind": "centre" }, "geometry": { "type": "Point", "coordinates": [ 75.7998665, 32.3282916 ] } },
{ "type": "Feature", "properties": { "osm_id": 8613991918, "name": "Primary Health Center Chari", "kind": "clinic" }, "geometry": { "type": "Point", "coordinates": [ 76.2610129, 32.2065164 ] } },
{ "type": "Feature", "properties": { "osm_id": 8784300966, "name": "PHC, Deol", "kind": "yes" }, "geometry": { "type": "Point", "coordinates": [ 76.6653923, 32.0912335 ] } },
{ "type": "Feature", "properties": { "osm_id": 9777656013, "name": "Rotary Eye Hospital", "kind": "hospital" }, "geometry": { "type": "Point", "coordinates": [ 76.2040168, 31.8273437 ] } },
{ "type": "Feature", "properties": { "osm_id": 9777656014, "name": "Dr Sant Ram Clinc", "kind": "hospital" }, "geometry": { "type": "Point", "coordinates": [ 76.211279, 31.8236799 ] } },
{ "type": "Feature", "properties": { "osm_id": 9777677694, "name": "Government Ayurvedic Heatlh Center", "kind": "hospital" }, "geometry": { "type": "Point", "coordinates": [ 76.1809554, 31.7960393 ] } },
{ "type": "Feature", "properties": { "osm_id": 9777677695, "name": "Health Sub Center", "kind": "hospital" }, "geometry": { "type": "Point", "coordinates": [ 76.1809362, 31.796051 ] } },
{ "type": "Feature", "properties": { "osm_id": 10117771792, "name": "Parveen Medical Store", "kind": "pharmacy" }, "geometry": { "type": "Point", "coordinates": [ 76.2052023, 31.8165373 ] } },
{ "type": "Feature", "properties": { "osm_id": 10676100463, "name": "Thakur Medical Store", "kind": "pharmacy" }, "geometry": { "type": "Point", "coordinates": [ 76.2412198, 31.8116358 ] } },
{ "type": "Feature", "properties": { "osm_id": 10676126234, "name": "Dev Digital X-Ray", "kind": "laboratory" }, "geometry": { "type": "Point", "coordinates": [ 76.2411101, 31.8116059 ] } },
{ "type": "Feature", "properties": { "osm_id": 11348919022, "name": "Deep Medical and General Store", "kind": "pharmacy" }, "geometry": { "type": "Point", "coordinates": [ 76.3275174, 32.2055648 ] } },
{ "type": "Feature", "properties": { "osm_id": 11351365473, "name": "Sharma Medical Store", "kind": "pharmacy" }, "geometry": { "type": "Point", "coordinates": [ 76.3275249, 32.2062407 ] } },
{ "type": "Feature", "properties": { "osm_id": 11351365525, "name": "Mukul Medical and General Store", "kind": "pharmacy" }, "geometry": { "type": "Point", "coordinates": [ 76.3277528, 32.2081295 ] } },
{ "type": "Feature", "properties": { "osm_id": 11359766847, "name": "unnamed", "kind": "pharmacy" }, "geometry": { "type": "Point", "coordinates": [ 76.3545689, 32.1899272 ] } },
{ "type": "Feature", "properties": { "osm_id": 11380858085, "name": "Stay Well Pharmacy", "kind": "pharmacy" }, "geometry": { "type": "Point", "coordinates": [ 76.3248777, 32.2369682 ] } },
{ "type": "Feature", "properties": { "osm_id": 11402445068, "name": "Chandel Medicos", "kind": "pharmacy" }, "geometry": { "type": "Point", "coordinates": [ 76.3329481, 32.2444227 ] } },
{ "type": "Feature", "properties": { "osm_id": 11411592044, "name": "Drungtso Tibetan Medical Clinic", "kind": "doctors" }, "geometry": { "type": "Point", "coordinates": [ 76.3242598, 32.2374752 ] } },
{ "type": "Feature", "properties": { "osm_id": 11697874611, "name": "SHOP", "kind": "pharmacy" }, "geometry": { "type": "Point", "coordinates": [ 75.9095677, 32.3443989 ] } },
{ "type": "Feature", "properties": { "osm_id": 11698087431, "name": "AJJU SHOP", "kind": "laboratory" }, "geometry": { "type": "Point", "coordinates": [ 75.9215151, 32.3640041 ] } },
{ "type": "Feature", "properties": { "osm_id": 11698091200, "name": "SHANKAR PHYSIOTHEREPIST", "kind": "pharmacy" }, "geometry": { "type": "Point", "coordinates": [ 75.920377, 32.3576283 ] } },
{ "type": "Feature", "properties": { "osm_id": 12813441771, "name": "White Petal Ayurveda", "kind": "alternative" }, "geometry": { "type": "Point", "coordinates": [ 76.3295303, 32.2464796 ] } },
{ "type": "Feature", "properties": { "osm_id": 12888014673, "name": "Ayuskama Ayurveda Panchakarma center", "kind": "alternative" }, "geometry": { "type": "Point", "coordinates": [ 76.3297777, 32.2436237 ] } },
{ "type": "Feature", "properties": { "osm_id": 12888255180, "name": "Massages Mitra", "kind": "physiotherapist" }, "geometry": { "type": "Point", "coordinates": [ 76.3244835, 32.238566 ] } },
{ "type": "Feature", "properties": { "osm_id": 13926242235, "name": "Vaid Medical Stores", "kind": "pharmacy" }, "geometry": { "type": "Point", "coordinates": [ 76.3651416, 32.1967883 ] } },
{ "type": "Feature", "properties": { "osm_id": 13958149979, "name": "Pharmacy & general store", "kind": "pharmacy" }, "geometry": { "type": "Point", "coordinates": [ 76.7143343, 32.0362343 ] } },
{ "type": "Feature", "properties": { "osm_id": 13970164136, "name": "KKT medical store", "kind": "pharmacy" }, "geometry": { "type": "Point", "coordinates": [ 76.6466499, 32.0497891 ] } },
{ "type": "Feature", "properties": { "osm_id": 13980929331, "name": "unnamed", "kind": "pharmacy" }, "geometry": { "type": "Point", "coordinates": [ 76.5112513, 32.0830761 ] } },
{ "type": "Feature", "properties": { "osm_id": 14014328195, "name": "Kunphen Rehan Center Tibetan reception centre", "kind": "rehabilitation" }, "geometry": { "type": "Point", "coordinates": [ 76.3508331, 32.2056772 ] } },
{ "type": "Feature", "properties": { "osm_id": 194167809, "name": "Zonal Hospital, Dharamshala", "kind": "hospital" }, "geometry": { "type": "Point", "coordinates": [ 76.3193839, 32.2127839 ] } },
{ "type": "Feature", "properties": { "osm_id": 279959604, "name": "Civil Hospital, Palampur", "kind": "hospital" }, "geometry": { "type": "Point", "coordinates": [ 76.5348125, 32.1077495 ] } },
{ "type": "Feature", "properties": { "osm_id": 286737231, "name": "Military  Hospital", "kind": "hospital" }, "geometry": { "type": "Point", "coordinates": [ 76.5573009, 32.1110794 ] } },
{ "type": "Feature", "properties": { "osm_id": 308598507, "name": "Sai Mahima Hospital", "kind": "hospital" }, "geometry": { "type": "Point", "coordinates": [ 76.3233493, 32.2168506 ] } },
{ "type": "Feature", "properties": { "osm_id": 421622087, "name": "Mela Mal Sood Rotary Eye Hospital", "kind": "hospital" }, "geometry": { "type": "Point", "coordinates": [ 76.5131851, 32.0824631 ] } },
{ "type": "Feature", "properties": { "osm_id": 1223771288, "name": "Ayushman Bharat Health and Wellness Center", "kind": "clinic" }, "geometry": { "type": "Point", "coordinates": [ 76.364236, 32.2303988 ] } }
]
}
