{
"type": "FeatureCollection",
"name": "kangra_boundary",
"crs": { "type": "name", "properties": { "name": "urn:ogc:def:crs:OGC:1.3:CRS84" } },
"features": [
{ "type": "Feature", "properties": { "ID_0": 105, "ISO": "IND", "NAME_0": "India", "ID_1": 14, "NAME_1": "Himachal Pradesh", "ID_2": 171, "NAME_2": "Kangra", "NL_NAME_2": null, "VARNAME_2": null, "TYPE_2": "District", "ENGTYPE_2": "District" }, "geometry": { "type": "Polygon", "coordinates": [ [ [ 76.878967285156193, 32.448982238769815 ], [ 76.874946594238565, 32.440929412841797 ], [ 76.883926391601506, 32.444358825683651 ], [ 76.893066406250284, 32.443820953369141 ], [ 76.901283264160099, 32.437870025634766 ], [ 76.901145935058764, 32.430820465087891 ], [ 76.895668029785213, 32.422039031982422 ], [ 76.902671813965014, 32.418880462646712 ], [ 76.909545898437671, 32.417789459228629 ], [ 76.920089721679744, 32.421661376953182 ], [ 76.926567077636776, 32.42533111572294 ], [ 76.932060241699219, 32.427379608154297 ], [ 76.937171936035327, 32.426921844482536 ], [ 76.935188293457145, 32.411819458007812 ], [ 76.936096191406307, 32.405460357666016 ], [ 76.945472717285213, 32.405601501464901 ], [ 76.954467773437784, 32.408390045166243 ], [ 76.964897155761776, 32.407299041748161 ], [ 76.974533081054631, 32.4139404296875 ], [ 76.979202270507869, 32.412609100341911 ], [ 76.986381530761889, 32.41392898559576 ], [ 76.997657775879077, 32.418399810791016 ], [ 77.015830993652401, 32.422481536865291 ], [ 77.03000640869169, 32.426509857177962 ], [ 77.042182922363395, 32.431541442871151 ], [ 77.048530578613224, 32.427501678466911 ], [ 77.050926208496151, 32.424560546875114 ], [ 77.052436828613338, 32.419391632080249 ], [ 77.061927795410327, 32.419731140136946 ], [ 77.063896179199276, 32.414920806884879 ], [ 77.064201354980639, 32.411571502685717 ], [ 77.062149047851619, 32.402980804443359 ], [ 77.058135986328125, 32.399398803711051 ], [ 77.059577941894815, 32.396450042724553 ], [ 77.056068420410213, 32.392620086670206 ], [ 77.052673339843864, 32.385818481445426 ], [ 77.038665771484546, 32.372879028320597 ], [ 77.035972595215014, 32.368961334228629 ], [ 77.029808044433878, 32.350669860839901 ], [ 77.024513244628906, 32.342338562011832 ], [ 77.027656555175838, 32.335941314697379 ], [ 77.028686523437784, 32.330390930175781 ], [ 77.028602600097713, 32.325321197509766 ], [ 77.025627136230753, 32.320690155029411 ], [ 77.015518188476847, 32.312831878662337 ], [ 77.014366149902628, 32.309238433838004 ], [ 77.017967224121207, 32.29618072509777 ], [ 77.020362854004077, 32.292789459228743 ], [ 77.020156860351733, 32.287349700927678 ], [ 77.015281677246151, 32.278549194335938 ], [ 77.013946533203182, 32.274429321289176 ], [ 77.013862609863452, 32.263839721679688 ], [ 77.016296386718693, 32.259578704834041 ], [ 77.016647338867472, 32.255409240722599 ], [ 77.015457153320369, 32.249969482422102 ], [ 77.018127441406307, 32.24547195434576 ], [ 77.027175903320256, 32.238571166992301 ], [ 77.036216735839901, 32.228610992431584 ], [ 77.030570983887003, 32.218940734863395 ], [ 77.022422790527344, 32.209690093994254 ], [ 77.004997253418082, 32.208648681640739 ], [ 77.000343322753906, 32.203781127929688 ], [ 76.98935699462902, 32.202610015869254 ], [ 76.986152648926065, 32.199150085449219 ], [ 76.978889465332315, 32.189449310302848 ], [ 76.983459472656534, 32.184928894043196 ], [ 76.978965759277514, 32.17760086059593 ], [ 76.975273132324503, 32.16648101806652 ], [ 76.970962524414233, 32.156909942626953 ], [ 76.968658447265796, 32.134250640869141 ], [ 76.97086334228544, 32.119499206543026 ], [ 76.972740173339901, 32.113552093505973 ], [ 76.930282592773381, 32.114952087402401 ], [ 76.928886413574332, 32.107559204101676 ], [ 76.926521301269702, 32.101650238037166 ], [ 76.922866821289233, 32.095550537109659 ], [ 76.926986694336051, 32.088581085205192 ], [ 76.926345825195369, 32.082012176513729 ], [ 76.928062438964901, 32.069271087646541 ], [ 76.923576354980753, 32.065410614013729 ], [ 76.914016723632926, 32.062049865722827 ], [ 76.906356811523494, 32.061210632324332 ], [ 76.899040222168139, 32.063079833984432 ], [ 76.887130737304972, 32.062290191650334 ], [ 76.871589660644702, 32.060169219970987 ], [ 76.852622985840128, 32.053691864013786 ], [ 76.843193054199276, 32.052761077880859 ], [ 76.836059570312443, 32.050239562988281 ], [ 76.832595825195597, 32.046760559082031 ], [ 76.826667785644815, 32.043659210205078 ], [ 76.823539733886776, 32.046081542968977 ], [ 76.810432434082088, 32.051181793213004 ], [ 76.799217224121378, 32.060760498047102 ], [ 76.78794097900402, 32.068309783935774 ], [ 76.785400390625057, 32.076042175293026 ], [ 76.776741027831974, 32.077079772949219 ], [ 76.771392822265568, 32.075851440429744 ], [ 76.766937255859432, 32.069179534912109 ], [ 76.761230468750114, 32.071289062500114 ], [ 76.754531860351619, 32.067588806152344 ], [ 76.745681762695483, 32.055969238281307 ], [ 76.728340148925952, 32.039958953857536 ], [ 76.722541809082315, 32.032489776611442 ], [ 76.715087890625284, 32.031620025634766 ], [ 76.714286804199276, 32.034759521484375 ], [ 76.707962036132869, 32.034870147705249 ], [ 76.698562622070483, 32.037410736084212 ], [ 76.690773010254077, 32.041728973388672 ], [ 76.690345764160156, 32.047321319580305 ], [ 76.687316894531421, 32.051280975341797 ], [ 76.672912597656307, 32.054111480712891 ], [ 76.664093017578182, 32.050418853759879 ], [ 76.660720825195426, 32.047618865966797 ], [ 76.659667968750171, 32.043521881103572 ], [ 76.647216796875284, 32.032939910888672 ], [ 76.649147033691406, 32.014358520507812 ], [ 76.653686523437784, 32.003131866455192 ], [ 76.664932250976847, 31.98947906494152 ], [ 76.669006347656421, 31.979440689087198 ], [ 76.671302795410327, 31.969430923461971 ], [ 76.668952941894815, 31.963890075683651 ], [ 76.67413330078125, 31.957439422607422 ], [ 76.674812316894588, 31.950290679931754 ], [ 76.675796508789347, 31.946210861206055 ], [ 76.678703308105412, 31.935060501098633 ], [ 76.673431396484432, 31.932929992675781 ], [ 76.671730041503963, 31.928691864013899 ], [ 76.671890258789233, 31.924150466918888 ], [ 76.667655944824219, 31.913282394409407 ], [ 76.662612915039119, 31.910350799560604 ], [ 76.662246704101676, 31.907180786132812 ], [ 76.663642883300781, 31.90065956115734 ], [ 76.659919738769588, 31.896930694580078 ], [ 76.660079956054744, 31.890281677246207 ], [ 76.660140991211051, 31.888420104980582 ], [ 76.662193298339901, 31.881740570068416 ], [ 76.662933349609375, 31.875930786132869 ], [ 76.653511047363565, 31.875720977783317 ], [ 76.644332885742472, 31.873300552368221 ], [ 76.634132385253906, 31.874559402465763 ], [ 76.625473022461222, 31.87709045410179 ], [ 76.590766906738224, 31.896379470825252 ], [ 76.576843261718693, 31.89850044250511 ], [ 76.553146362304801, 31.892110824585188 ], [ 76.537246704101619, 31.884361267089901 ], [ 76.522315979003906, 31.873701095580998 ], [ 76.508186340331974, 31.866451263427905 ], [ 76.501747131347827, 31.860519409179744 ], [ 76.501388549804744, 31.859249114990462 ], [ 76.505607604980526, 31.852979660034237 ], [ 76.504852294921932, 31.846250534057617 ], [ 76.484550476074219, 31.841630935669002 ], [ 76.46427154541044, 31.833831787109489 ], [ 76.458312988281307, 31.832849502563477 ], [ 76.455230712890682, 31.831470489502067 ], [ 76.452789306640682, 31.829259872436467 ], [ 76.460189819335994, 31.818500518798942 ], [ 76.459075927734432, 31.813028335571346 ], [ 76.453697204589844, 31.812690734863565 ], [ 76.450157165527628, 31.817920684814567 ], [ 76.444152832031421, 31.820381164550781 ], [ 76.440368652343807, 31.816200256347656 ], [ 76.446479797363338, 31.807558059692496 ], [ 76.435775756835994, 31.805360794067383 ], [ 76.42999267578125, 31.805120468139705 ], [ 76.431266784668082, 31.812379837036076 ], [ 76.425346374511832, 31.812311172485408 ], [ 76.421623229980639, 31.799081802368164 ], [ 76.415412902832088, 31.796819686889762 ], [ 76.399589538574276, 31.798120498657397 ], [ 76.397811889648438, 31.786909103393498 ], [ 76.3931884765625, 31.793470382690487 ], [ 76.384292602539119, 31.79972076416044 ], [ 76.378509521484546, 31.794942855834961 ], [ 76.367462158203296, 31.783069610595703 ], [ 76.355186462402628, 31.779710769653434 ], [ 76.352783203125171, 31.783491134643555 ], [ 76.347846984863338, 31.788150787353629 ], [ 76.341751098632869, 31.793380737304744 ], [ 76.337760925293026, 31.795490264892578 ], [ 76.32334136962919, 31.78660964965826 ], [ 76.306518554687614, 31.780929565429744 ], [ 76.299575805664233, 31.780109405517805 ], [ 76.293846130371264, 31.782110214233512 ], [ 76.291969299316463, 31.784240722656364 ], [ 76.289741516113395, 31.789520263671932 ], [ 76.286453247070369, 31.789911270141602 ], [ 76.286315917969034, 31.784570693969727 ], [ 76.288002014160213, 31.778181076049805 ], [ 76.298011779785156, 31.770610809326286 ], [ 76.295326232910099, 31.766069412231445 ], [ 76.293167114257926, 31.759849548339957 ], [ 76.296669006347656, 31.758190155029354 ], [ 76.295738220215014, 31.750312805175895 ], [ 76.297889709472713, 31.7445583343507 ], [ 76.301109313964844, 31.74197959899908 ], [ 76.301376342773551, 31.735870361328125 ], [ 76.304817199707315, 31.733360290527287 ], [ 76.302597045898608, 31.728010177612305 ], [ 76.299171447754077, 31.723819732666072 ], [ 76.297821044921875, 31.722177505493164 ], [ 76.280036926269815, 31.693321228027344 ], [ 76.275009155273494, 31.688711166381836 ], [ 76.269821166992358, 31.692888259887923 ], [ 76.264556884765739, 31.700700759887923 ], [ 76.256507873535213, 31.70776176452631 ], [ 76.242248535156364, 31.716619491577205 ], [ 76.236602783203296, 31.720220565795898 ], [ 76.234123229980639, 31.724300384521428 ], [ 76.209228515625057, 31.74458122253418 ], [ 76.19525146484375, 31.765130996704102 ], [ 76.194511413574276, 31.770282745361328 ], [ 76.189048767090128, 31.774740219116211 ], [ 76.179946899414062, 31.773990631103743 ], [ 76.174842834472656, 31.769901275634766 ], [ 76.167968750000171, 31.771820068359432 ], [ 76.169906616210994, 31.778390884399528 ], [ 76.165519714355526, 31.785829544067496 ], [ 76.157028198242472, 31.790399551391715 ], [ 76.151306152344034, 31.795339584350586 ], [ 76.145233154296875, 31.79789924621582 ], [ 76.117149353027628, 31.801841735839787 ], [ 76.100196838378849, 31.80713081359886 ], [ 76.087165832519588, 31.820671081543082 ], [ 76.075622558593921, 31.82521057128929 ], [ 76.070831298828068, 31.832042694091911 ], [ 76.070259094238224, 31.832860946655558 ], [ 76.067878723144588, 31.845951080322379 ], [ 76.057975769043026, 31.840599060058594 ], [ 76.039619445800838, 31.855989456176815 ], [ 76.032699584960938, 31.863010406494141 ], [ 76.023338317871037, 31.865360260009993 ], [ 75.993843078613338, 31.864480972290039 ], [ 75.987106323242188, 31.85667991638195 ], [ 75.985282897949276, 31.852390289306868 ], [ 75.975006103515682, 31.850980758667276 ], [ 75.964569091797159, 31.850580215454102 ], [ 75.955383300781364, 31.854642868041992 ], [ 75.944252014160213, 31.857519149780273 ], [ 75.938400268554801, 31.867889404296875 ], [ 75.931442260742358, 31.883831024169979 ], [ 75.926170349121151, 31.889791488647518 ], [ 75.912689208984659, 31.916578292846793 ], [ 75.902763366699503, 31.927919387817496 ], [ 75.895957946777514, 31.940259933471623 ], [ 75.894546508789347, 31.949800491333235 ], [ 75.877716064453182, 31.961980819702262 ], [ 75.869720458984432, 31.965970993042106 ], [ 75.868537902832088, 31.96690940856945 ], [ 75.866172790527287, 31.968820571899414 ], [ 75.856796264648722, 31.96945953369152 ], [ 75.851303100585938, 31.972530364990291 ], [ 75.841629028320312, 31.973619461059627 ], [ 75.836372375488565, 31.981649398803654 ], [ 75.814048767089957, 31.98340034484869 ], [ 75.805603027343807, 31.985019683838175 ], [ 75.795120239257869, 31.988580703735465 ], [ 75.784286499023551, 31.994329452514705 ], [ 75.774299621582031, 32.000789642334212 ], [ 75.766448974609546, 32.007640838623274 ], [ 75.761543273925838, 32.013900756836051 ], [ 75.753807067871378, 32.019882202148438 ], [ 75.748367309570369, 32.02716064453125 ], [ 75.740036010742301, 32.034481048583984 ], [ 75.738006591796875, 32.035800933837891 ], [ 75.733978271484659, 32.037330627441463 ], [ 75.723228454589901, 32.036170959472884 ], [ 75.71048736572294, 32.036022186279297 ], [ 75.700408935547159, 32.04359054565424 ], [ 75.692276000976733, 32.059452056884766 ], [ 75.689819335937557, 32.061531066894759 ], [ 75.673103332519815, 32.066921234130859 ], [ 75.649360656738452, 32.077171325683821 ], [ 75.640052795410213, 32.076740264892692 ], [ 75.625320434570483, 32.07266998291027 ], [ 75.609558105468807, 32.069469451904354 ], [ 75.598526000976847, 32.066009521484318 ], [ 75.578758239746264, 32.081680297851562 ], [ 75.610557556152628, 32.099609375 ], [ 75.631202697753906, 32.119499206543026 ], [ 75.647872924804744, 32.137660980224609 ], [ 75.655479431152401, 32.146060943603516 ], [ 75.661827087402401, 32.164669036865348 ], [ 75.656158447265909, 32.176620483398551 ], [ 75.649589538574276, 32.179691314697493 ], [ 75.620216369628963, 32.185169219970874 ], [ 75.619445800781307, 32.189849853515625 ], [ 75.618331909179744, 32.197021484375284 ], [ 75.620117187499943, 32.220211029052678 ], [ 75.621772766113338, 32.23003005981451 ], [ 75.622543334961051, 32.23468017578125 ], [ 75.634078979492358, 32.24473953247093 ], [ 75.640922546386719, 32.247379302978572 ], [ 75.652442932128963, 32.255439758300781 ], [ 75.654876708984546, 32.255851745605469 ], [ 75.675842285156421, 32.264019012451229 ], [ 75.684890747070369, 32.26501846313505 ], [ 75.704879760742244, 32.267238616943587 ], [ 75.736396789550838, 32.273761749267692 ], [ 75.751838684082088, 32.284172058105582 ], [ 75.754676818847713, 32.286079406738395 ], [ 75.761856079101562, 32.296112060546932 ], [ 75.763366699218693, 32.302150726318587 ], [ 75.783142089843864, 32.322200775146598 ], [ 75.785491943359318, 32.323791503906477 ], [ 75.793716430664233, 32.332382202148665 ], [ 75.799278259277514, 32.337371826171989 ], [ 75.813919067382812, 32.350559234619197 ], [ 75.818870544433537, 32.355030059814567 ], [ 75.837402343750171, 32.373020172119141 ], [ 75.843879699707202, 32.379310607910213 ], [ 75.86631011962902, 32.394561767578352 ], [ 75.871932983398608, 32.398448944091854 ], [ 75.911109924316463, 32.409191131591911 ], [ 75.91916656494169, 32.40111160278326 ], [ 75.921981811523494, 32.396049499511776 ], [ 75.931617736816577, 32.392780303955192 ], [ 75.943367004394645, 32.390819549560604 ], [ 75.951751708984489, 32.392459869384766 ], [ 75.958831787109659, 32.391498565673771 ], [ 75.963569641113338, 32.385681152343693 ], [ 75.975616455078409, 32.376270294189453 ], [ 75.984275817871264, 32.364341735839844 ], [ 75.989509582519588, 32.354862213134879 ], [ 76.004035949707315, 32.338680267333984 ], [ 76.006248474121151, 32.33145904541027 ], [ 76.002426147460994, 32.325389862060604 ], [ 76.000061035156193, 32.318931579589844 ], [ 76.007942199707202, 32.321620941162166 ], [ 76.007949829101562, 32.319110870361555 ], [ 76.005462646484546, 32.312900543213004 ], [ 76.004142761230526, 32.304229736328068 ], [ 76.001167297363565, 32.299690246582031 ], [ 76.001373291015909, 32.291671752929688 ], [ 76.011001586914062, 32.279510498046932 ], [ 76.015502929687784, 32.271369934082145 ], [ 76.02587890625, 32.269901275634993 ], [ 76.031806945800838, 32.265281677246207 ], [ 76.056579589843921, 32.269920349121094 ], [ 76.062797546387003, 32.272201538085938 ], [ 76.070953369140682, 32.272098541259709 ], [ 76.078147888183651, 32.269458770751953 ], [ 76.083946228027628, 32.264629364013786 ], [ 76.094566345214901, 32.259681701660213 ], [ 76.104179382324503, 32.257881164550724 ], [ 76.108535766601676, 32.252490997314453 ], [ 76.107986450195597, 32.24303054809576 ], [ 76.109542846679631, 32.236240386962834 ], [ 76.107040405273722, 32.229511260986442 ], [ 76.110488891601847, 32.229549407959098 ], [ 76.116668701171875, 32.229679107666072 ], [ 76.128158569335994, 32.226589202880916 ], [ 76.135147094726733, 32.228351593017635 ], [ 76.143867492676065, 32.231651306152401 ], [ 76.152999877929972, 32.238208770751953 ], [ 76.157142639160213, 32.231842041015682 ], [ 76.157730102539119, 32.226039886474837 ], [ 76.161247253417969, 32.226161956787109 ], [ 76.166107177734432, 32.228599548339901 ], [ 76.16861724853527, 32.233589172363338 ], [ 76.164878845214844, 32.24662017822277 ], [ 76.169136047363338, 32.257400512695369 ], [ 76.171356201171875, 32.267799377441349 ], [ 76.170867919921932, 32.273849487304801 ], [ 76.165771484375284, 32.277969360351562 ], [ 76.157539367675838, 32.28136062622093 ], [ 76.152290344238281, 32.284809112548885 ], [ 76.151252746582088, 32.289951324462947 ], [ 76.147041320800838, 32.299282073974837 ], [ 76.146842956543026, 32.313961029052962 ], [ 76.144660949707031, 32.319000244140682 ], [ 76.149909973144588, 32.323768615722713 ], [ 76.152557373046932, 32.327510833740462 ], [ 76.15380859375, 32.333660125732536 ], [ 76.156982421875114, 32.33853912353527 ], [ 76.157669067382983, 32.341331481933821 ], [ 76.154747009277287, 32.346778869628906 ], [ 76.153861999511719, 32.352039337158203 ], [ 76.150596618652514, 32.354808807373104 ], [ 76.161430358886662, 32.35802078247093 ], [ 76.174263000488452, 32.366100311279411 ], [ 76.182891845703182, 32.370121002197379 ], [ 76.189857482910156, 32.37506103515625 ], [ 76.195472717285213, 32.379970550537337 ], [ 76.201072692871378, 32.388618469238338 ], [ 76.204200744629077, 32.394920349121151 ], [ 76.207283020019588, 32.396579742431697 ], [ 76.226737976074276, 32.394580841064453 ], [ 76.238746643066463, 32.395450592041129 ], [ 76.243492126465014, 32.394149780273494 ], [ 76.245796203613281, 32.380840301513672 ], [ 76.250640869140739, 32.374900817871321 ], [ 76.257461547851619, 32.376609802246151 ], [ 76.259498596191577, 32.375499725341797 ], [ 76.26806640625, 32.369129180908317 ], [ 76.270339965820256, 32.364761352539062 ], [ 76.271476745605412, 32.357810974121378 ], [ 76.278991699218807, 32.34141921997076 ], [ 76.285980224609318, 32.3389892578125 ], [ 76.293235778808594, 32.341510772705192 ], [ 76.301033020019815, 32.338661193847884 ], [ 76.309509277343807, 32.337120056152401 ], [ 76.314903259277401, 32.333889007568303 ], [ 76.322715759277401, 32.327590942382869 ], [ 76.332397460937557, 32.327209472656307 ], [ 76.339897155761832, 32.32804107666027 ], [ 76.347946166992472, 32.318740844726562 ], [ 76.357406616210994, 32.303840637207145 ], [ 76.36319732666044, 32.298690795898551 ], [ 76.391258239746037, 32.284328460693359 ], [ 76.403793334961051, 32.281490325927905 ], [ 76.408660888672046, 32.266090393066349 ], [ 76.417030334472656, 32.26475906372093 ], [ 76.424606323242472, 32.267311096191463 ], [ 76.433761596679972, 32.263679504394588 ], [ 76.442558288574503, 32.256809234619254 ], [ 76.447929382324219, 32.250411987304801 ], [ 76.454246520996264, 32.24951171875 ], [ 76.460617065429744, 32.249740600585938 ], [ 76.466262817382983, 32.25363922119152 ], [ 76.473182678222713, 32.247470855713175 ], [ 76.478698730468807, 32.245090484619197 ], [ 76.488586425781421, 32.235080718994254 ], [ 76.497650146484659, 32.234649658203125 ], [ 76.508598327636889, 32.239501953125057 ], [ 76.510139465332202, 32.235069274902401 ], [ 76.532600402831974, 32.230361938476676 ], [ 76.540756225586222, 32.230838775634879 ], [ 76.548622131347599, 32.227039337158317 ], [ 76.556518554687557, 32.227569580078125 ], [ 76.574226379394702, 32.223030090332202 ], [ 76.583702087402628, 32.216770172119254 ], [ 76.591949462890796, 32.208869934081974 ], [ 76.597763061523494, 32.201080322265625 ], [ 76.609199523925838, 32.194511413574332 ], [ 76.643569946289347, 32.185329437255859 ], [ 76.650093078613224, 32.18236160278343 ], [ 76.657546997070312, 32.181110382080021 ], [ 76.666603088378963, 32.181800842285156 ], [ 76.671882629394702, 32.187808990478516 ], [ 76.677360534667912, 32.192089080810774 ], [ 76.682487487793253, 32.198970794677791 ], [ 76.693443298340014, 32.200859069824162 ], [ 76.697761535644815, 32.200691223144531 ], [ 76.705047607422046, 32.197769165039176 ], [ 76.712387084960994, 32.193340301513672 ], [ 76.721221923828409, 32.189899444580078 ], [ 76.723838806152401, 32.190879821777457 ], [ 76.738708496093807, 32.205612182617301 ], [ 76.744888305664006, 32.209331512451286 ], [ 76.750442504882983, 32.216251373291016 ], [ 76.755287170410213, 32.223419189453125 ], [ 76.757141113281421, 32.229381561279297 ], [ 76.755493164062557, 32.244689941406364 ], [ 76.762176513671932, 32.250759124755859 ], [ 76.755012512207031, 32.252529144287166 ], [ 76.753799438476676, 32.256198883056697 ], [ 76.759719848633097, 32.263679504394588 ], [ 76.763626098632983, 32.270191192626896 ], [ 76.754631042480469, 32.283828735351506 ], [ 76.760063171386776, 32.293231964111442 ], [ 76.758895874023494, 32.302711486816349 ], [ 76.755966186523438, 32.310649871826172 ], [ 76.764282226562614, 32.314750671386719 ], [ 76.769515991211108, 32.318759918212947 ], [ 76.762847900390796, 32.328861236572322 ], [ 76.760818481445369, 32.334918975830135 ], [ 76.756622314453182, 32.341239929199162 ], [ 76.746932983398551, 32.347309112548828 ], [ 76.741043090820597, 32.353858947753906 ], [ 76.737815856933878, 32.360321044921875 ], [ 76.742813110351733, 32.362091064453125 ], [ 76.756980895996151, 32.361541748046932 ], [ 76.761947631835994, 32.364109039306697 ], [ 76.766555786132869, 32.37129211425804 ], [ 76.771621704101733, 32.376689910888729 ], [ 76.769378662109432, 32.384010314941577 ], [ 76.768432617187557, 32.392059326171932 ], [ 76.7705078125, 32.408260345459269 ], [ 76.786605834961051, 32.414192199707259 ], [ 76.794937133789119, 32.420639038085938 ], [ 76.797569274902514, 32.429611206054688 ], [ 76.807701110839844, 32.439109802246094 ], [ 76.819091796875, 32.443309783935604 ], [ 76.831039428711051, 32.449871063232422 ], [ 76.840896606445369, 32.458160400390568 ], [ 76.848815917969034, 32.463191986084269 ], [ 76.865615844726506, 32.469169616699332 ], [ 76.877090454101733, 32.471519470214844 ], [ 76.884757995605469, 32.472309112548942 ], [ 76.892257690429744, 32.46931076049799 ], [ 76.891380310058594, 32.462322235107422 ], [ 76.883506774902628, 32.455600738525391 ], [ 76.878967285156193, 32.448982238769815 ] ] ] } }
]
}
